NORAD_CAT_ID,OBJECT_NAME,OBJECT_TYPE,EPOCH,MEAN_MOTION,ECCENTRICITY,INCLINATION,RA_OF_ASC_NODE,ARG_OF_PERICENTER,MEAN_ANOMALY,BSTAR,MEAN_MOTION_DOT,MEAN_MOTION_DDOT,TLE_LINE0,TLE_LINE1,TLE_LINE2,SEMIMAJOR_AXIS,PERIOD,APOGEE,PERIGEE,DECAYED
53288.0,STARLINK-4162,PAYLOAD,2023-06-25 15:01:08,15.08841506,0.0001095,53.2171,299.7158,89.7696,270.3422,6.7672e-05,7.89e-06,0.0,0 STARLINK-4162,1 53288U 22086AY  23176.62579532  .00000789  00000-0  67672-4 0  9998,2 53288  53.2171 299.7158 0001095  89.7696 270.3422 15.08841506 51866,6917.876,95.437,540.498,538.983,0.0
53288.0,STARLINK-4162,PAYLOAD,2023-06-25 18:11:54,15.08854787,0.000108,53.2176,299.1198,86.4835,273.6281,0.00011235,1.501e-05,0.0,0 STARLINK-4162,1 53288U 22086AY  23176.75826524  .00001501  00000-0  11235-3 0  9994,2 53288  53.2176 299.1198 0001080  86.4835 273.6281 15.08854787 51888,6917.835,95.437,540.447,538.953,0.0
53288.0,STARLINK-4162,PAYLOAD,2023-06-26 13:16:32,15.08839112,0.0001229,53.2176,295.5528,91.2965,268.8168,7.5659e-05,9.16e-06,0.0,0 STARLINK-4162,1 53288U 22086AY  23177.55315775  .00000916  00000-0  75659-4 0  9994,2 53288  53.2176 295.5528 0001229  91.2965 268.8168 15.08839112 52008,6917.883,95.438,540.598,538.898,0.0
53288.0,STARLINK-4162,PAYLOAD,2023-06-26 18:02:41,15.08848742,0.0001169,53.2165,294.6602,89.3999,270.7127,0.0001632,2.311e-05,0.0,0 STARLINK-4162,1 53288U 22086AY  23177.75187076  .00002311  00000-0  16320-3 0  9997,2 53288  53.2165 294.6602 0001169  89.3999 270.7127 15.08848742 52036,6917.854,95.437,540.527,538.91,0.0
53288.0,STARLINK-4162,PAYLOAD,2023-06-27 11:31:57,15.08835756,0.0001288,53.2171,291.3898,91.963,268.1509,-5.8424e-06,-3.81e-06,0.0,0 STARLINK-4162,1 53288U 22086AY  23178.48052094 -.00000381  00000-0 -58424-5 0  9999,2 53288  53.2171 291.3898 0001288  91.9630 268.1509 15.08835756 52145,6917.893,95.438,540.649,538.867,0.0
53288.0,STARLINK-4162,PAYLOAD,2023-06-28 14:33:30,15.08841899,0.0001214,53.2167,286.3352,99.3237,260.7892,0.00016965,2.413e-05,0.0,0 STARLINK-4162,1 53288U 22086AY  23179.60660092  .00002413  00000-0  16965-3 0  9995,2 53288  53.2167 286.3352 0001214  99.3237 260.7892 15.08841899 52310,6917.875,95.437,540.579,538.9,0.0
53288.0,STARLINK-4162,PAYLOAD,2023-06-29 11:13:31,15.08832847,0.0001057,53.2147,282.4666,87.2829,272.8284,0.00013221,1.817e-05,0.0,0 STARLINK-4162,1 53288U 22086AY  23180.46772719  .00001817  00000-0  13221-3 0  9990,2 53288  53.2147 282.4666 0001057  87.2829 272.8284 15.08832847 52447,6917.902,95.438,540.498,539.036,0.0
53288.0,STARLINK-4162,PAYLOAD,2023-06-30 14:15:04,15.0885397,0.0001047,53.2163,277.4131,82.9638,277.1473,0.00024353,3.592e-05,0.0,0 STARLINK-4162,1 53288U 22086AY  23181.59379832  .00003592  00000-0  24353-3 0  9994,2 53288  53.2163 277.4131 0001047  82.9638 277.1473 15.08853970 52612,6917.838,95.437,540.427,538.978,0.0
53288.0,STARLINK-4162,PAYLOAD,2023-06-30 23:47:23,15.08842825,9.5e-05,53.2159,275.6289,82.6397,277.4704,0.00010415,1.37e-05,0.0,0 STARLINK-4162,1 53288U 22086AY  23181.99124241  .00001370  00000-0  10415-3 0  9996,2 53288  53.2159 275.6289 0000950  82.6397 277.4704 15.08842825 52675,6917.872,95.437,540.394,539.08,0.0
53288.0,STARLINK-4162,PAYLOAD,2023-07-01 17:16:38,15.08839795,0.0001045,53.2161,272.3575,92.956,267.1552,9.7412e-05,1.263e-05,0.0,0 STARLINK-4162,1 53288U 22086AY  23182.71988618  .00001263  00000-0  97412-4 0  9997,2 53288  53.2161 272.3575 0001045  92.9560 267.1552 15.08839795 52783,6917.881,95.438,540.469,539.023,0.0
53288.0,STARLINK-4162,PAYLOAD,2023-07-03 12:12:02,15.08849815,9.52e-05,53.2159,264.329,81.353,278.7569,0.00033146,4.993e-05,0.0,0 STARLINK-4162,1 53288U 22086AY  23184.50836589  .00004993  00000-0  33146-3 0  9991,2 53288  53.2159 264.3290 0000952  81.3530 278.7569 15.08849815 53051,6917.85,95.437,540.374,539.057,0.0
53288.0,STARLINK-4162,PAYLOAD,2023-07-03 21:44:22,15.08836014,0.0001235,53.2157,262.5449,77.3076,282.8054,8.3253e-06,-1.55e-06,0.0,0 STARLINK-4162,1 53288U 22086AY  23184.90581083 -.00000155  00000-0  83253-5 0  9994,2 53288  53.2157 262.5449 0001235  77.3076 282.8054 15.08836014 53119,6917.893,95.438,540.612,538.903,0.0
53288.0,STARLINK-4162,PAYLOAD,2023-07-04 10:27:26,15.08848219,9.36e-05,53.2158,260.1661,84.3916,275.7183,0.00021788,3.182e-05,0.0,0 STARLINK-4162,1 53288U 22086AY  23185.43572524  .00003182  00000-0  21788-3 0  9998,2 53288  53.2158 260.1661 0000936  84.3916 275.7183 15.08848219 53190,6917.855,95.437,540.368,539.073,0.0
53288.0,STARLINK-4162,PAYLOAD,2023-07-04 21:35:08,15.0883882,6.26e-05,53.2159,258.0844,101.5876,258.5186,-4.1882e-05,-9.54e-06,0.0,0 STARLINK-4162,1 53288U 22086AY  23185.89940524 -.00000954  00000-0 -41882-4 0  9991,2 53288  53.2159 258.0844 0000626 101.5876 258.5186 15.08838820 53260,6917.884,95.438,540.182,539.316,0.0
53288.0,STARLINK-4162,PAYLOAD,2023-07-05 15:04:23,15.08844075,7.99e-05,53.2149,254.8135,97.9031,262.2051,0.00041054,6.253e-05,0.0,0 STARLINK-4162,1 53288U 22086AY  23186.62804605  .00006253  00000-0  41054-3 0  9998,2 53288  53.2149 254.8135 0000799  97.9031 262.2051 15.08844075 53372,6917.868,95.437,540.286,539.18,0.0
53288.0,STARLINK-4162,PAYLOAD,2023-07-06 05:22:51,15.08837994,8.89e-05,53.2148,252.1373,90.5367,269.5727,0.00021536,3.141e-05,0.0,0 STARLINK-4162,1 53288U 22086AY  23187.22420935  .00003141  00000-0  21536-3 0  9991,2 53288  53.2148 252.1373 0000889  90.5367 269.5727 15.08837994 53469,6917.887,95.438,540.367,539.137,0.0
53288.0,STARLINK-4162,PAYLOAD,2023-07-07 09:59:47,15.08847835,9.11e-05,53.2146,246.7842,90.6108,269.4989,0.00027012,4.015e-05,0.0,0 STARLINK-4162,1 53288U 22086AY  23188.41652742  .00004015  00000-0  27012-3 0  9992,2 53288  53.2146 246.7842 0000911  90.6108 269.4989 15.08847835 53641,6917.856,95.437,540.352,539.091,0.0
53288.0,STARLINK-4162,PAYLOAD,2023-07-07 21:07:30,15.08839577,9.25e-05,53.2131,244.7009,86.3501,273.7597,8.5335e-05,1.071e-05,0.0,0 STARLINK-4162,1 53288U 22086AY  23188.88020978  .00001071  00000-0  85335-4 0  9995,2 53288  53.2131 244.7009 0000925  86.3501 273.7597 15.08839577 53717,6917.882,95.438,540.387,539.107,0.0
53288.0,STARLINK-4162,PAYLOAD,2023-07-09 03:19:50,15.08835547,8.1e-05,53.2158,239.0523,82.6511,277.4573,4.805e-05,4.77e-06,0.0,0 STARLINK-4162,1 53288U 22086AY  23190.13877635  .00000477  00000-0  48050-4 0  9998,2 53288  53.2158 239.0523 0000810  82.6511 277.4573 15.08835547 53906,6917.894,95.438,540.319,539.199,0.0
53288.0,STARLINK-4162,PAYLOAD,2023-07-09 20:49:04,15.08843703,8.93e-05,53.2157,235.7815,75.891,284.2181,-3.0445e-06,-3.36e-06,0.0,0 STARLINK-4162,1 53288U 22086AY  23190.86741203 -.00000336  00000-0 -30445-5 0  9995,2 53288  53.2157 235.7815 0000893  75.8910 284.2181 15.08843703 54017,6917.869,95.437,540.352,539.116,0.0
53288.0,STARLINK-4162,PAYLOAD,2023-07-11 03:01:24,15.08836787,9.74e-05,53.2152,230.1311,74.025,286.0849,0.00010346,1.359e-05,0.0,0 STARLINK-4162,1 53288U 22086AY  23192.12597484  .00001359  00000-0  10346-3 0  9996,2 53288  53.2152 230.1311 0000974  74.0250 286.0849 15.08836787 54206,6917.89,95.438,540.429,539.081,0.0
53288.0,STARLINK-4162,PAYLOAD,2023-07-12 09:13:43,15.08842872,0.0001006,53.2157,224.4817,77.0741,283.0363,4.0156e-05,3.51e-06,0.0,0 STARLINK-4162,1 53288U 22086AY  23193.38453386  .00000351  00000-0  40156-4 0  9991,2 53288  53.2157 224.4817 0001006  77.0741 283.0363 15.08842872 54393,6917.872,95.437,540.433,539.041,0.0
53288.0,STARLINK-4162,PAYLOAD,2023-07-13 12:15:17,15.08835345,9.78e-05,53.2158,219.4269,85.3952,274.7152,3.0588e-05,1.99e-06,0.0,0 STARLINK-4162,1 53288U 22086AY  23194.51062127  .00000199  00000-0  30588-4 0  9994,2 53288  53.2158 219.4269 0000978  85.3952 274.7152 15.08835345 54561,6917.895,95.438,540.436,539.083,0.0
53288.0,STARLINK-4162,PAYLOAD,2023-07-14 18:27:36,15.08857016,9.9e-05,53.2155,213.7755,82.6281,277.4824,-0.00015304,-2.724e-05,0.0,0 STARLINK-4162,1 53288U 22086AY  23195.76917294 -.00002724  00000-0 -15304-3 0  9992,2 53288  53.2155 213.7755 0000990  82.6281 277.4824 15.08857016 54750,6917.828,95.436,540.378,539.009,0.0
53288.0,STARLINK-4162,PAYLOAD,2023-07-15 00:49:09,15.08839161,9.56e-05,53.2154,212.586,79.3776,280.7324,0.00014234,1.978e-05,0.0,0 STARLINK-4162,1 53288U 22086AY  23196.03413863  .00001978  00000-0  14234-3 0  9995,2 53288  53.2154 212.5860 0000956  79.3776 280.7324 15.08839161 54794,6917.883,95.438,540.409,539.087,0.0
53288.0,STARLINK-4162,PAYLOAD,2023-07-16 07:01:29,15.08841017,0.0001028,53.2156,206.9362,78.5272,281.5836,5.9543e-05,6.6e-06,0.0,0 STARLINK-4162,1 53288U 22086AY  23197.29269995  .00000660  00000-0  59543-4 0  9999,2 53288  53.2156 206.9362 0001028  78.5272 281.5836 15.08841017 54984,6917.877,95.437,540.453,539.031,0.0
53288.0,STARLINK-4162,PAYLOAD,2023-07-17 10:03:02,15.0884436,0.0001021,53.2155,201.8803,81.6295,278.4813,5.6981e-05,6.19e-06,0.0,0 STARLINK-4162,1 53288U 22086AY  23198.41877625  .00000619  00000-0  56981-4 0  9996,2 53288  53.2155 201.8803 0001021  81.6295 278.4813 15.08844360 55154,6917.867,95.437,540.438,539.026,0.0
53288.0,STARLINK-4162,PAYLOAD,2023-07-18 11:29:12,15.08842768,0.0001025,53.2156,197.1224,81.3868,278.724,6.5753e-05,7.59e-06,0.0,0 STARLINK-4162,1 53288U 22086AY  23199.47861510  .00000759  00000-0  65753-4 0  9991,2 53288  53.2156 197.1224 0001025  81.3868 278.7240 15.08842768 55311,6917.872,95.437,540.446,539.028,0.0
53288.0,STARLINK-4162,PAYLOAD,2023-07-19 00:12:17,15.08835591,0.0001057,53.2157,194.7434,79.1599,280.9512,1.7305e-05,-1.2e-07,0.0,0 STARLINK-4162,1 53288U 22086AY  23200.00854140 -.00000012  00000-0  17305-4 0  9997,2 53288  53.2157 194.7434 0001057  79.1599 280.9512 15.08835591 55390,6917.894,95.438,540.49,539.028,0.0
53288.0,STARLINK-4162,PAYLOAD,2023-07-21 01:29:15,15.08836046,0.000111,53.2163,185.5258,92.1078,268.0041,6.2743e-05,7.11e-06,0.0,0 STARLINK-4162,1 53288U 22086AY  23202.06198517  .00000711  00000-0  62743-4 0  9995,2 53288  53.2163 185.5258 0001110  92.1078 268.0041 15.08836046 55701,6917.892,95.438,540.525,538.99,0.0
